{
  "type": "FeatureCollection",
  "features": [
    {
      "type": "Feature",
      "properties": {
        "norad_id": 66643,
        "name": "STARLINK-35918",
        "group": "last-30-days",
        "lat": 24.635976652723926,
        "lon": -2.7642966841082743,
        "alt_km": 386.9556072661717,
        "timestamp": "2025-12-10T14:53:35.947505+00:00",
        "meta_object_name": "STARLINK-35918",
        "meta_object_id": "2025-271AC",
        "meta_epoch": "2025-12-10T06:00:02.000160",
        "meta_mean_motion": 15.60820245,
        "meta_eccentricity": 0.00010711,
        "meta_inclination": 53.1597,
        "meta_ra_of_asc_node": 199.1465,
        "meta_arg_of_pericenter": 103.0576,
        "meta_mean_anomaly": 123.3775,
        "meta_ephemeris_type": 0,
        "meta_classification_type": "U",
        "meta_norad_cat_id": 66643,
        "meta_element_set_no": 999,
        "meta_rev_at_epoch": 384,
        "meta_bstar": -0.027328418,
        "meta_mean_motion_dot": -0.02034044,
        "meta_mean_motion_ddot": 0,
        "tle_line1": "1 66643U 25271AC  25344.25002315 -.02034044  00000+0 -27328-1 0  9999",
        "tle_line2": "2 66643  53.1597 199.1465 0001071 103.0576 123.3775 15.60820245  3849"
      },
      "geometry": {
        "type": "Point",
        "coordinates": [
          -2.7642966841082743,
          24.635976652723926
        ]
      }
    },
    {
      "type": "Feature",
      "properties": {
        "norad_id": 66644,
        "name": "STARLINK-35938",
        "group": "last-30-days",
        "lat": 23.18799036138317,
        "lon": -1.390497813154853,
        "alt_km": 387.18815453444495,
        "timestamp": "2025-12-10T14:53:35.947514+00:00",
        "meta_object_name": "STARLINK-35938",
        "meta_object_id": "2025-271AD",
        "meta_epoch": "2025-12-10T06:00:02.000160",
        "meta_mean_motion": 15.60822295,
        "meta_eccentricity": 0.00010791,
        "meta_inclination": 53.1599,
        "meta_ra_of_asc_node": 199.1426,
        "meta_arg_of_pericenter": 105.2357,
        "meta_mean_anomaly": 123.1151,
        "meta_ephemeris_type": 0,
        "meta_classification_type": "U",
        "meta_norad_cat_id": 66644,
        "meta_element_set_no": 999,
        "meta_rev_at_epoch": 384,
        "meta_bstar": -0.027359362,
        "meta_mean_motion_dot": -0.02036204,
        "meta_mean_motion_ddot": 0,
        "tle_line1": "1 66644U 25271AD  25344.25002315 -.02036204  00000+0 -27359-1 0  9994",
        "tle_line2": "2 66644  53.1599 199.1426 0001079 105.2357 123.1151 15.60822295  3841"
      },
      "geometry": {
        "type": "Point",
        "coordinates": [
          -1.390497813154853,
          23.18799036138317
        ]
      }
    },
    {
      "type": "Feature",
      "properties": {
        "norad_id": 66645,
        "name": "SHENZHOU-22",
        "group": "last-30-days",
        "lat": 38.13542921628474,
        "lon": 146.8198556763729,
        "alt_km": 385.0172056916772,
        "timestamp": "2025-12-10T14:53:35.947523+00:00",
        "meta_object_name": "SHENZHOU-22",
        "meta_object_id": "2025-272A",
        "meta_epoch": "2025-12-10T06:43:57.761760",
        "meta_mean_motion": 15.59014677,
        "meta_eccentricity": 0.00088021,
        "meta_inclination": 41.4682,
        "meta_ra_of_asc_node": 31.6356,
        "meta_arg_of_pericenter": 10.5172,
        "meta_mean_anomaly": 349.5849,
        "meta_ephemeris_type": 0,
        "meta_classification_type": "U",
        "meta_norad_cat_id": 66645,
        "meta_element_set_no": 999,
        "meta_rev_at_epoch": 26357,
        "meta_bstar": 0.00043406543,
        "meta_mean_motion_dot": 0.00034646,
        "meta_mean_motion_ddot": 0,
        "tle_line1": "1 66645U 25272A   25344.28052965  .00034646  00000+0  43407-3 0  9993",
        "tle_line2": "2 66645  41.4682  31.6356 0008802  10.5172 349.5849 15.59014677263572"
      },
      "geometry": {
        "type": "Point",
        "coordinates": [
          146.8198556763729,
          38.13542921628474
        ]
      }
    },
    {
      "type": "Feature",
      "properties": {
        "norad_id": 66647,
        "name": "COSMOS 2597 (RODNIK-S 22)",
        "group": "last-30-days",
        "lat": -1.3972247319590112,
        "lon": -72.41915185388149,
        "alt_km": 1498.517152001421,
        "timestamp": "2025-12-10T14:53:35.947533+00:00",
        "meta_object_name": "COSMOS 2597 (RODNIK-S 22)",
        "meta_object_id": "2025-273A",
        "meta_epoch": "2025-12-10T07:10:02.447616",
        "meta_mean_motion": 12.41951295,
        "meta_eccentricity": 0.00079436,
        "meta_inclination": 82.4985,
        "meta_ra_of_asc_node": 287.9648,
        "meta_arg_of_pericenter": 294.9615,
        "meta_mean_anomaly": 65.0639,
        "meta_ephemeris_type": 0,
        "meta_classification_type": "U",
        "meta_norad_cat_id": 66647,
        "meta_element_set_no": 999,
        "meta_rev_at_epoch": 183,
        "meta_bstar": 0.00027868972,
        "meta_mean_motion_dot": 4.8e-07,
        "meta_mean_motion_ddot": 0,
        "tle_line1": "1 66647U 25273A   25344.29863944  .00000048  00000+0  27869-3 0  9997",
        "tle_line2": "2 66647  82.4985 287.9648 0007943 294.9615  65.0639 12.41951295  1830"
      },
      "geometry": {
        "type": "Point",
        "coordinates": [
          -72.41915185388149,
          -1.3972247319590112
        ]
      }
    },
    {
      "type": "Feature",
      "properties": {
        "norad_id": 66648,
        "name": "COSMOS 2598 (RODNIK-S 23)",
        "group": "last-30-days",
        "lat": 24.67364009707393,
        "lon": -68.76448496741652,
        "alt_km": 1497.1457830674854,
        "timestamp": "2025-12-10T14:53:35.947542+00:00",
        "meta_object_name": "COSMOS 2598 (RODNIK-S 23)",
        "meta_object_id": "2025-273B",
        "meta_epoch": "2025-12-10T07:01:54.467328",
        "meta_mean_motion": 12.4286157,
        "meta_eccentricity": 0.00072486,
        "meta_inclination": 82.5033,
        "meta_ra_of_asc_node": 287.9714,
        "meta_arg_of_pericenter": 257.0898,
        "meta_mean_anomaly": 102.9372,
        "meta_ephemeris_type": 0,
        "meta_classification_type": "U",
        "meta_norad_cat_id": 66648,
        "meta_element_set_no": 999,
        "meta_rev_at_epoch": 183,
        "meta_bstar": 0.00012581148,
        "meta_mean_motion_dot": 2.7e-07,
        "meta_mean_motion_ddot": 0,
        "tle_line1": "1 66648U 25273B   25344.29299152  .00000027  00000+0  12581-3 0  9994",
        "tle_line2": "2 66648  82.5033 287.9714 0007248 257.0898 102.9372 12.42861570  1833"
      },
      "geometry": {
        "type": "Point",
        "coordinates": [
          -68.76448496741652,
          24.67364009707393
        ]
      }
    },
    {
      "type": "Feature",
      "properties": {
        "norad_id": 66649,
        "name": "COSMOS 2599 (RODNIK-S 24)",
        "group": "last-30-days",
        "lat": -16.324467702862567,
        "lon": -74.42938797645544,
        "alt_km": 1499.1021080905593,
        "timestamp": "2025-12-10T14:53:35.947554+00:00",
        "meta_object_name": "COSMOS 2599 (RODNIK-S 24)",
        "meta_object_id": "2025-273C",
        "meta_epoch": "2025-12-10T07:14:47.131296",
        "meta_mean_motion": 12.41671924,
        "meta_eccentricity": 0.00081409,
        "meta_inclination": 82.5026,
        "meta_ra_of_asc_node": 287.9784,
        "meta_arg_of_pericenter": 305.5524,
        "meta_mean_anomaly": 54.4795,
        "meta_ephemeris_type": 0,
        "meta_classification_type": "U",
        "meta_norad_cat_id": 66649,
        "meta_element_set_no": 999,
        "meta_rev_at_epoch": 183,
        "meta_bstar": 0.00032122625,
        "meta_mean_motion_dot": 5.4e-07,
        "meta_mean_motion_ddot": 0,
        "tle_line1": "1 66649U 25273C   25344.30193439  .00000054  00000+0  32123-3 0  9992",
        "tle_line2": "2 66649  82.5026 287.9784 0008140 305.5524  54.4795 12.41671924  1831"
      },
      "geometry": {
        "type": "Point",
        "coordinates": [
          -74.42938797645544,
          -16.324467702862567
        ]
      }
    },
    {
      "type": "Feature",
      "properties": {
        "norad_id": 66650,
        "name": "BEE-1000",
        "group": "last-30-days",
        "lat": 76.52428879902159,
        "lon": -122.72719392311734,
        "alt_km": 592.84363730317,
        "timestamp": "2025-12-10T14:53:35.947565+00:00",
        "meta_object_name": "BEE-1000",
        "meta_object_id": "2025-274A",
        "meta_epoch": "2025-12-10T06:29:25.679040",
        "meta_mean_motion": 14.91647079,
        "meta_eccentricity": 0.00104233,
        "meta_inclination": 97.7386,
        "meta_ra_of_asc_node": 271.5034,
        "meta_arg_of_pericenter": 260.9194,
        "meta_mean_anomaly": 99.0845,
        "meta_ephemeris_type": 0,
        "meta_classification_type": "U",
        "meta_norad_cat_id": 66650,
        "meta_element_set_no": 999,
        "meta_rev_at_epoch": 203,
        "meta_bstar": 0.0002858281,
        "meta_mean_motion_dot": 2.819e-05,
        "meta_mean_motion_ddot": 0,
        "tle_line1": "1 66650U 25274A   25344.27043610  .00002819  00000+0  28583-3 0  9992",
        "tle_line2": "2 66650  97.7386 271.5034 0010423 260.9194  99.0845 14.91647079  2036"
      },
      "geometry": {
        "type": "Point",
        "coordinates": [
          -122.72719392311734,
          76.52428879902159
        ]
      }
    }
  ]
}